DELTA 2 R/B(1)          
1 20453U 90008B   25356.24593445  .00048160  00000+0  75067-3 0  9994
2 20453  35.6081 319.1127 0110813 264.7533  94.0546 15.45954332914101
COSMOS 2058             
1 20465U 90010A   25356.82707058  .00005125  00000+0  30869-3 0  9996
2 20465  82.4705 123.1090 0009237 233.5340 126.5039 15.10565120930635
SL-14 R/B               
1 20466U 90010B   25356.93054858  .00000451  00000+0  51804-4 0  9992
2 20466  82.5021 339.4754 0019495 188.2465 171.8433 14.83480394917104
SL-14 R/B               
1 20511U 90018B   25356.80700752  .00000459  00000+0  54743-4 0  9991
2 20511  82.5219 294.9554 0016133 350.8087   9.2829 14.82056464911192
HST                     
1 20580U 90037B   25356.65366697  .00006390  00000+0  21819-3 0  9994
2 20580  28.4655 205.0036 0002275 359.2451   0.8141 15.28171375761512
SL-16 R/B               
1 20625U 90046B   25356.71354321 -.00000216  00000+0 -86673-4 0  9995
2 20625  70.9992  99.5763 0012118  55.8223 304.4046 14.14998119837501
COSMOS 2084             
1 20663U 90055A   25356.66707855  .00002548  00000+0  19086-3 0  9996
2 20663  62.7892 238.1663 0030131 176.0387 184.0958 15.05073807924727
SL-6 R/B(2)             
1 20666U 90055D   25356.81294978  .00001882  00000+0  15311-3 0  9990
2 20666  62.7811 155.1870 0013833 315.6810  44.3181 15.03117285926636
SL-8 R/B                
1 20775U 90078B   25356.89791144  .00016744  00000+0  51727-3 0  9995
2 20775  82.9060 320.2141 0370446 271.7057  84.1773 14.86298069797886
SL-8 R/B                
1 21088U 91006B   25356.90972382  .00000124  00000+0  10910-3 0  9996
2 21088  82.9417 227.1482 0021215 249.5694 120.8087 13.77492017753505
OKEAN-3                 
1 21397U 91039A   25356.86042410  .00002826  00000+0  20127-3 0  9992
2 21397  82.5168  51.2517 0013566 227.2385 132.7700 15.04181013853487
COSMOS 2151             
1 21422U 91042A   25356.89831935  .00001690  00000+0  13462-3 0  9998
2 21422  82.4964 157.7132 0011763 324.1417  35.9016 14.99723257851683
