CCSDS_OMM_VERS = 2.0
CREATION_DATE  = 
ORIGINATOR     = 

OBJECT_NAME    = DELTA 2 R/B(1)
OBJECT_ID      = 1990-008B
CENTER_NAME    = EARTH
REF_FRAME      = TEME
TIME_SYSTEM    = UTC
MEAN_ELEMENT_THEORY = SGP/SGP4

EPOCH          = 2025-12-22T05:54:08.736480
MEAN_MOTION    = 15.45954332
ECCENTRICITY   = .01108131
INCLINATION    = 35.6081
RA_OF_ASC_NODE = 319.1127
ARG_OF_PERICENTER = 264.7533
MEAN_ANOMALY   = 94.0546

EPHEMERIS_TYPE = 0
CLASSIFICATION_TYPE = U
NORAD_CAT_ID   = 20453
ELEMENT_SET_NO = 999
REV_AT_EPOCH   = 91410
BSTAR          = .75066616E-3
MEAN_MOTION_DOT = .4816E-3
MEAN_MOTION_DDOT = 0

CCSDS_OMM_VERS = 2.0
CREATION_DATE  = 
ORIGINATOR     = 

OBJECT_NAME    = COSMOS 2058
OBJECT_ID      = 1990-010A
CENTER_NAME    = EARTH
REF_FRAME      = TEME
TIME_SYSTEM    = UTC
MEAN_ELEMENT_THEORY = SGP/SGP4

EPOCH          = 2025-12-22T19:50:58.898112
MEAN_MOTION    = 15.10565120
ECCENTRICITY   = .00092379
INCLINATION    = 82.4705
RA_OF_ASC_NODE = 123.1090
ARG_OF_PERICENTER = 233.5340
MEAN_ANOMALY   = 126.5039

EPHEMERIS_TYPE = 0
CLASSIFICATION_TYPE = U
NORAD_CAT_ID   = 20465
ELEMENT_SET_NO = 999
REV_AT_EPOCH   = 93063
BSTAR          = .30868883E-3
MEAN_MOTION_DOT = .5125E-4
MEAN_MOTION_DDOT = 0

CCSDS_OMM_VERS = 2.0
CREATION_DATE  = 
ORIGINATOR     = 

OBJECT_NAME    = SL-14 R/B
OBJECT_ID      = 1990-010B
CENTER_NAME    = EARTH
REF_FRAME      = TEME
TIME_SYSTEM    = UTC
MEAN_ELEMENT_THEORY = SGP/SGP4

EPOCH          = 2025-12-22T22:19:59.397312
MEAN_MOTION    = 14.83480394
ECCENTRICITY   = .00194959
INCLINATION    = 82.5021
RA_OF_ASC_NODE = 339.4754
ARG_OF_PERICENTER = 188.2465
MEAN_ANOMALY   = 171.8433

EPHEMERIS_TYPE = 0
CLASSIFICATION_TYPE = U
NORAD_CAT_ID   = 20466
ELEMENT_SET_NO = 999
REV_AT_EPOCH   = 91710
BSTAR          = .51804067E-4
MEAN_MOTION_DOT = .451E-5
MEAN_MOTION_DDOT = 0

CCSDS_OMM_VERS = 2.0
CREATION_DATE  = 
ORIGINATOR     = 

OBJECT_NAME    = SL-14 R/B
OBJECT_ID      = 1990-018B
CENTER_NAME    = EARTH
REF_FRAME      = TEME
TIME_SYSTEM    = UTC
MEAN_ELEMENT_THEORY = SGP/SGP4

EPOCH          = 2025-12-22T19:22:05.449728
MEAN_MOTION    = 14.82056464
ECCENTRICITY   = .00161338
INCLINATION    = 82.5219
RA_OF_ASC_NODE = 294.9554
ARG_OF_PERICENTER = 350.8087
MEAN_ANOMALY   = 9.2829

EPHEMERIS_TYPE = 0
CLASSIFICATION_TYPE = U
NORAD_CAT_ID   = 20511
ELEMENT_SET_NO = 999
REV_AT_EPOCH   = 91119
BSTAR          = .54742515E-4
MEAN_MOTION_DOT = .459E-5
MEAN_MOTION_DDOT = 0

CCSDS_OMM_VERS = 2.0
CREATION_DATE  = 
ORIGINATOR     = 

OBJECT_NAME    = HST
OBJECT_ID      = 1990-037B
CENTER_NAME    = EARTH
REF_FRAME      = TEME
TIME_SYSTEM    = UTC
MEAN_ELEMENT_THEORY = SGP/SGP4

EPOCH          = 2025-12-22T15:41:16.826208
MEAN_MOTION    = 15.28171375
ECCENTRICITY   = .00022754
INCLINATION    = 28.4655
RA_OF_ASC_NODE = 205.0036
ARG_OF_PERICENTER = 359.2451
MEAN_ANOMALY   = 0.8141

EPHEMERIS_TYPE = 0
CLASSIFICATION_TYPE = U
NORAD_CAT_ID   = 20580
ELEMENT_SET_NO = 999
REV_AT_EPOCH   = 76151
BSTAR          = .21819072E-3
MEAN_MOTION_DOT = .639E-4
MEAN_MOTION_DDOT = 0

CCSDS_OMM_VERS = 2.0
CREATION_DATE  = 
ORIGINATOR     = 

OBJECT_NAME    = SL-16 R/B
OBJECT_ID      = 1990-046B
CENTER_NAME    = EARTH
REF_FRAME      = TEME
TIME_SYSTEM    = UTC
MEAN_ELEMENT_THEORY = SGP/SGP4

EPOCH          = 2025-12-22T17:07:30.133344
MEAN_MOTION    = 14.14998119
ECCENTRICITY   = .00121182
INCLINATION    = 70.9992
RA_OF_ASC_NODE = 99.5763
ARG_OF_PERICENTER = 55.8223
MEAN_ANOMALY   = 304.4046

EPHEMERIS_TYPE = 0
CLASSIFICATION_TYPE = U
NORAD_CAT_ID   = 20625
ELEMENT_SET_NO = 999
REV_AT_EPOCH   = 83750
BSTAR          = -.86672642E-4
MEAN_MOTION_DOT = -.216E-5
MEAN_MOTION_DDOT = 0

CCSDS_OMM_VERS = 2.0
CREATION_DATE  = 
ORIGINATOR     = 

OBJECT_NAME    = COSMOS 2084
OBJECT_ID      = 1990-055A
CENTER_NAME    = EARTH
REF_FRAME      = TEME
TIME_SYSTEM    = UTC
MEAN_ELEMENT_THEORY = SGP/SGP4

EPOCH          = 2025-12-22T16:00:35.586720
MEAN_MOTION    = 15.05073807
ECCENTRICITY   = .00301318
INCLINATION    = 62.7892
RA_OF_ASC_NODE = 238.1663
ARG_OF_PERICENTER = 176.0387
MEAN_ANOMALY   = 184.0958

EPHEMERIS_TYPE = 0
CLASSIFICATION_TYPE = U
NORAD_CAT_ID   = 20663
ELEMENT_SET_NO = 999
REV_AT_EPOCH   = 92472
BSTAR          = .19085662E-3
MEAN_MOTION_DOT = .2548E-4
MEAN_MOTION_DDOT = 0

CCSDS_OMM_VERS = 2.0
CREATION_DATE  = 
ORIGINATOR     = 

OBJECT_NAME    = SL-6 R/B(2)
OBJECT_ID      = 1990-055D
CENTER_NAME    = EARTH
REF_FRAME      = TEME
TIME_SYSTEM    = UTC
MEAN_ELEMENT_THEORY = SGP/SGP4

EPOCH          = 2025-12-22T19:30:38.860992
MEAN_MOTION    = 15.03117285
ECCENTRICITY   = .00138334
INCLINATION    = 62.7811
RA_OF_ASC_NODE = 155.1870
ARG_OF_PERICENTER = 315.6810
MEAN_ANOMALY   = 44.3181

EPHEMERIS_TYPE = 0
CLASSIFICATION_TYPE = U
NORAD_CAT_ID   = 20666
ELEMENT_SET_NO = 999
REV_AT_EPOCH   = 92663
BSTAR          = .1531148E-3
MEAN_MOTION_DOT = .1882E-4
MEAN_MOTION_DDOT = 0

CCSDS_OMM_VERS = 2.0
CREATION_DATE  = 
ORIGINATOR     = 

OBJECT_NAME    = SL-8 R/B
OBJECT_ID      = 1990-078B
CENTER_NAME    = EARTH
REF_FRAME      = TEME
TIME_SYSTEM    = UTC
MEAN_ELEMENT_THEORY = SGP/SGP4

EPOCH          = 2025-12-22T21:32:59.548416
MEAN_MOTION    = 14.86298069
ECCENTRICITY   = .03704467
INCLINATION    = 82.9060
RA_OF_ASC_NODE = 320.2141
ARG_OF_PERICENTER = 271.7057
MEAN_ANOMALY   = 84.1773

EPHEMERIS_TYPE = 0
CLASSIFICATION_TYPE = U
NORAD_CAT_ID   = 20775
ELEMENT_SET_NO = 999
REV_AT_EPOCH   = 79788
BSTAR          = .51726916E-3
MEAN_MOTION_DOT = .16744E-3
MEAN_MOTION_DDOT = 0

CCSDS_OMM_VERS = 2.0
CREATION_DATE  = 
ORIGINATOR     = 

OBJECT_NAME    = SL-8 R/B
OBJECT_ID      = 1991-006B
CENTER_NAME    = EARTH
REF_FRAME      = TEME
TIME_SYSTEM    = UTC
MEAN_ELEMENT_THEORY = SGP/SGP4

EPOCH          = 2025-12-22T21:50:00.138048
MEAN_MOTION    = 13.77492017
ECCENTRICITY   = .00212155
INCLINATION    = 82.9417
RA_OF_ASC_NODE = 227.1482
ARG_OF_PERICENTER = 249.5694
MEAN_ANOMALY   = 120.8087

EPHEMERIS_TYPE = 0
CLASSIFICATION_TYPE = U
NORAD_CAT_ID   = 21088
ELEMENT_SET_NO = 999
REV_AT_EPOCH   = 75350
BSTAR          = .10910246E-3
MEAN_MOTION_DOT = .124E-5
MEAN_MOTION_DDOT = 0

CCSDS_OMM_VERS = 2.0
CREATION_DATE  = 
ORIGINATOR     = 

OBJECT_NAME    = OKEAN-3
OBJECT_ID      = 1991-039A
CENTER_NAME    = EARTH
REF_FRAME      = TEME
TIME_SYSTEM    = UTC
MEAN_ELEMENT_THEORY = SGP/SGP4

EPOCH          = 2025-12-22T20:39:00.642240
MEAN_MOTION    = 15.04181013
ECCENTRICITY   = .00135669
INCLINATION    = 82.5168
RA_OF_ASC_NODE = 51.2517
ARG_OF_PERICENTER = 227.2385
MEAN_ANOMALY   = 132.7700

EPHEMERIS_TYPE = 0
CLASSIFICATION_TYPE = U
NORAD_CAT_ID   = 21397
ELEMENT_SET_NO = 999
REV_AT_EPOCH   = 85348
BSTAR          = .20127486E-3
MEAN_MOTION_DOT = .2826E-4
MEAN_MOTION_DDOT = 0

CCSDS_OMM_VERS = 2.0
CREATION_DATE  = 
ORIGINATOR     = 

OBJECT_NAME    = COSMOS 2151
OBJECT_ID      = 1991-042A
CENTER_NAME    = EARTH
REF_FRAME      = TEME
TIME_SYSTEM    = UTC
MEAN_ELEMENT_THEORY = SGP/SGP4

EPOCH          = 2025-12-22T21:33:34.791840
MEAN_MOTION    = 14.99723257
ECCENTRICITY   = .0011763
INCLINATION    = 82.4964
RA_OF_ASC_NODE = 157.7132
ARG_OF_PERICENTER = 324.1417
MEAN_ANOMALY   = 35.9016

EPHEMERIS_TYPE = 0
CLASSIFICATION_TYPE = U
NORAD_CAT_ID   = 21422
ELEMENT_SET_NO = 999
REV_AT_EPOCH   = 85168
BSTAR          = .13462399E-3
MEAN_MOTION_DOT = .169E-4
MEAN_MOTION_DDOT = 0

